OBJECT B                
1 51825U 22019B   24317.78339670  .00025941  00000+0  91791-3 0  9995
2 51825  97.4141  27.8060 0013585  77.5346 282.7413 15.29045018149877
